NORAD_CAT_ID,OBJECT_NAME,OBJECT_TYPE,EPOCH,MEAN_MOTION,ECCENTRICITY,INCLINATION,RA_OF_ASC_NODE,ARG_OF_PERICENTER,MEAN_ANOMALY,BSTAR,MEAN_MOTION_DOT,MEAN_MOTION_DDOT,TLE_LINE0,TLE_LINE1,TLE_LINE2,SEMIMAJOR_AXIS,PERIOD,APOGEE,PERIGEE,DECAYED
52270.0,STARLINK-3804,PAYLOAD,2023-08-03 17:32:30,15.08844111,0.0001029,53.2159,49.1894,93.2389,266.8721,0.00015982,2.257e-05,0.0,0 STARLINK-3804,1 52270U 22041K   23215.73090319  .00002257  00000-0  15982-3 0  9994,2 52270  53.2159  49.1894 0001029  93.2389 266.8721 15.08844111 72312,6917.868,95.437,540.445,539.021,0.0
52270.0,STARLINK-3804,PAYLOAD,2023-08-04 18:58:40,15.08838474,0.0001566,53.2168,44.4289,54.2303,305.8834,0.0001187,1.602e-05,0.0,0 STARLINK-3804,1 52270U 22041K   23216.79074904  .00001602  00000-0  11870-3 0  9998,2 52270  53.2168  44.4289 0001566  54.2303 305.8834 15.08838474 72478,6917.885,95.438,540.833,538.667,0.0
52270.0,STARLINK-3804,PAYLOAD,2023-08-04 23:44:49,15.08849648,0.0001265,53.2172,43.5395,72.1593,287.9538,0.00029774,4.455e-05,0.0,0 STARLINK-3804,1 52270U 22041K   23216.98946464  .00004455  00000-0  29774-3 0  9999,2 52270  53.2172  43.5395 0001265  72.1593 287.9538 15.08849648 72507,6917.851,95.437,540.591,538.841,0.0
52270.0,STARLINK-3804,PAYLOAD,2023-08-06 17:04:52,15.08826694,0.0001123,53.2185,35.8071,111.5864,248.5248,-0.00016247,-2.872e-05,0.0,0 STARLINK-3804,1 52270U 22041K   23218.71171463 -.00002872  00000-0 -16247-3 0  9995,2 52270  53.2185  35.8071 0001123 111.5864 248.5248 15.08826694 72763,6917.921,95.438,540.563,539.009,0.0
52270.0,STARLINK-3804,PAYLOAD,2023-08-07 20:06:25,15.08845427,9.59e-05,53.2176,30.753,102.8481,257.2618,7.4048e-05,8.91e-06,0.0,0 STARLINK-3804,1 52270U 22041K   23219.83779305  .00000891  00000-0  74048-4 0  9999,2 52270  53.2176  30.7530 0000959 102.8481 257.2618 15.08845427 72933,6917.864,95.437,540.392,539.065,0.0
52270.0,STARLINK-3804,PAYLOAD,2023-08-07 21:41:47,15.08855053,8.31e-05,53.2174,30.4554,101.948,258.1605,-0.00014786,-2.641e-05,0.0,0 STARLINK-3804,1 52270U 22041K   23219.90402738 -.00002641  00000-0 -14786-3 0  9999,2 52270  53.2174  30.4554 0000831 101.9480 258.1605 15.08855053 72945,6917.834,95.437,540.274,539.125,0.0
52270.0,STARLINK-3804,PAYLOAD,2023-08-08 04:03:21,15.08846246,8.4e-05,53.2172,29.2659,102.1492,257.9594,0.00013039,1.788e-05,0.0,0 STARLINK-3804,1 52270U 22041K   23220.16899325  .00001788  00000-0  13039-3 0  9990,2 52270  53.2172  29.2659 0000840 102.1492 257.9594 15.08846246 72983,6917.861,95.437,540.307,539.145,0.0
52270.0,STARLINK-3804,PAYLOAD,2023-08-09 15:01:50,15.08840812,0.0001181,53.2174,22.7235,75.5679,284.5444,-6.9362e-05,-1.392e-05,0.0,0 STARLINK-3804,1 52270U 22041K   23221.62627475 -.00001392  00000-0 -69362-4 0  9991,2 52270  53.2174  22.7235 0001181  75.5679 284.5444 15.08840812 73201,6917.878,95.438,540.56,538.926,0.0
52270.0,STARLINK-3804,PAYLOAD,2023-08-09 22:58:45,15.08849546,0.0001043,53.2175,21.2377,76.2712,283.8396,0.00010784,1.429e-05,0.0,0 STARLINK-3804,1 52270U 22041K   23221.95747087  .00001429  00000-0  10784-3 0  9991,2 52270  53.2175  21.2377 0001043  76.2712 283.8396 15.08849546 73252,6917.851,95.437,540.438,538.995,0.0
52270.0,STARLINK-3804,PAYLOAD,2023-08-10 10:06:27,15.08831561,9.09e-05,53.2164,19.1562,73.1198,286.9894,-0.0001984,-3.443e-05,0.0,0 STARLINK-3804,1 52270U 22041K   23222.42115718 -.00003443  00000-0 -19840-3 0  9996,2 52270  53.2164  19.1562 0000909  73.1198 286.9894 15.08831561 73329,6917.906,95.438,540.4,539.142,0.0
52270.0,STARLINK-3804,PAYLOAD,2023-08-10 16:28:00,15.08844378,9.54e-05,53.2169,17.9673,77.8664,282.2435,7.329e-06,-1.71e-06,0.0,0 STARLINK-3804,1 52270U 22041K   23222.68611388 -.00000171  00000-0  73290-5 0  9993,2 52270  53.2169  17.9673 0000954  77.8664 282.2435 15.08844378 73366,6917.867,95.437,540.392,539.072,0.0
52270.0,STARLINK-3804,PAYLOAD,2023-08-11 19:29:33,15.0885478,7.87e-05,53.218,12.9091,92.5486,267.5596,0.00036707,5.561e-05,0.0,0 STARLINK-3804,1 52270U 22041K   23223.81218832  .00005561  00000-0  36707-3 0  9993,2 52270  53.2180  12.9091 0000787  92.5486 267.5596 15.08854780 73539,6917.835,95.437,540.245,539.156,0.0
52270.0,STARLINK-3804,PAYLOAD,2023-08-12 03:26:29,15.08844494,8.24e-05,53.2175,11.4247,82.4596,277.649,0.00014496,2.02e-05,0.0,0 STARLINK-3804,1 52270U 22041K   23224.14339183  .00002020  00000-0  14496-3 0  9991,2 52270  53.2175  11.4247 0000824  82.4596 277.6490 15.08844494 73583,6917.867,95.437,540.302,539.162,0.0
52270.0,STARLINK-3804,PAYLOAD,2023-08-13 09:38:48,15.08834647,0.0001147,53.2164,5.7772,62.1935,297.9173,-2.6629e-05,-7.12e-06,0.0,0 STARLINK-3804,1 52270U 22041K   23225.40195586 -.00000712  00000-0 -26629-4 0  9998,2 52270  53.2164   5.7772 0001147  62.1935 297.9173 15.08834647 73774,6917.897,95.438,540.555,538.968,0.0
52270.0,STARLINK-3804,PAYLOAD,2023-08-13 20:46:30,15.08848515,0.0001007,53.2184,3.694,76.9714,283.139,5.4705e-05,5.83e-06,0.0,0 STARLINK-3804,1 52270U 22041K   23225.86562799  .00000583  00000-0  54705-4 0  9992,2 52270  53.2184   3.6940 0001007  76.9714 283.1390 15.08848515 73848,6917.854,95.437,540.416,539.023,0.0
52270.0,STARLINK-3804,PAYLOAD,2023-08-14 15:51:08,15.08840634,0.0001174,53.2173,0.1268,80.0038,280.1086,7.6188e-05,9.25e-06,0.0,0 STARLINK-3804,1 52270U 22041K   23226.66051555  .00000925  00000-0  76188-4 0  9993,2 52270  53.2173   0.1268 0001174  80.0038 280.1086 15.08840634 73967,6917.878,95.438,540.556,538.931,0.0
52270.0,STARLINK-3804,PAYLOAD,2023-08-15 01:23:27,15.08832417,0.0001806,53.2168,358.3397,87.5208,272.5991,4.4835e-05,4.25e-06,0.0,0 STARLINK-3804,1 52270U 22041K   23227.05796084  .00000425  00000-0  44835-4 0  9999,2 52270  53.2168 358.3397 0001806  87.5208 272.5991 15.08832417 74023,6917.904,95.438,541.018,538.519,0.0
52270.0,STARLINK-3804,PAYLOAD,2023-08-16 01:14:13,15.08850192,0.0001078,53.2194,353.8794,79.9231,280.1883,0.00019648,2.841e-05,0.0,0 STARLINK-3804,1 52270U 22041K   23228.05155055  .00002841  00000-0  19648-3 0  9994,2 52270  53.2194 353.8794 0001078  79.9231 280.1883 15.08850192 74176,6917.849,95.437,540.46,538.968,0.0
52270.0,STARLINK-3804,PAYLOAD,2023-08-16 09:11:10,15.08829914,0.0001107,53.2169,352.3938,84.7662,275.3456,-3.8011e-05,-8.92e-06,0.0,0 STARLINK-3804,1 52270U 22041K   23228.38276121 -.00000892  00000-0 -38011-4 0  9990,2 52270  53.2169 352.3938 0001107  84.7662 275.3456 15.08829914 74223,6917.911,95.438,540.542,539.01,0.0
52270.0,STARLINK-3804,PAYLOAD,2023-08-17 01:05:01,15.08841584,0.0001423,53.2177,349.4192,89.5952,270.5203,0.00017046,2.426e-05,0.0,0 STARLINK-3804,1 52270U 22041K   23229.04515804  .00002426  00000-0  17046-3 0  9995,2 52270  53.2177 349.4192 0001423  89.5952 270.5203 15.08841584 74322,6917.876,95.437,540.725,538.756,0.0
52270.0,STARLINK-3804,PAYLOAD,2023-08-17 16:58:52,15.08855714,0.0001394,53.2212,346.4496,100.8393,259.2757,1.5048e-05,-4.8e-07,0.0,0 STARLINK-3804,1 52270U 22041K   23229.70755047 -.00000048  00000-0  15048-4 0  9993,2 52270  53.2212 346.4496 0001394 100.8393 259.2757 15.08855714 74428,6917.832,95.437,540.662,538.733,0.0
52270.0,STARLINK-3804,PAYLOAD,2023-08-18 00:55:49,15.08836549,0.0002383,53.2198,344.9624,89.3359,270.7906,0.00015938,2.249e-05,0.0,0 STARLINK-3804,1 52270U 22041K   23230.03876448  .00002249  00000-0  15938-3 0  9991,2 52270  53.2198 344.9624 0002383  89.3359 270.7906 15.08836549 74473,6917.891,95.438,541.404,538.107,0.0
52270.0,STARLINK-3804,PAYLOAD,2023-08-19 11:54:17,15.08847228,0.0001111,53.2164,338.4191,104.9121,255.1994,0.00044055,6.732e-05,0.0,0 STARLINK-3804,1 52270U 22041K   23231.49603814  .00006732  00000-0  44055-3 0  9990,2 52270  53.2164 338.4191 0001111 104.9121 255.1994 15.08847228 74696,6917.858,95.437,540.492,538.955,0.0
52270.0,STARLINK-3804,PAYLOAD,2023-08-20 10:09:41,15.08839907,8.58e-05,53.2162,334.2584,84.7322,275.3768,0.00016625,2.359e-05,0.0,0 STARLINK-3804,1 52270U 22041K   23232.42340101  .00002359  00000-0  16625-3 0  9994,2 52270  53.2162 334.2584 0000858  84.7322 275.3768 15.08839907 74833,6917.881,95.438,540.339,539.152,0.0
52270.0,STARLINK-3804,PAYLOAD,2023-08-21 11:35:52,15.08842161,0.0001408,53.218,329.4956,120.8147,239.2984,0.00018,2.578e-05,0.0,0 STARLINK-3804,1 52270U 22041K   23233.48324112  .00002578  00000-0  18000-3 0  9997,2 52270  53.2180 329.4956 0001408 120.8147 239.2984 15.08842161 74993,6917.874,95.437,540.713,538.765,0.0
52270.0,STARLINK-3804,PAYLOAD,2023-08-22 05:05:06,15.08840782,0.0001162,53.2173,326.2291,87.1436,272.969,0.000146,2.037e-05,0.0,0 STARLINK-3804,1 52270U 22041K   23234.21188471  .00002037  00000-0  14600-3 0  9997,2 52270  53.2173 326.2291 0001162  87.1436 272.9690 15.08840782 75104,6917.878,95.438,540.547,538.939,0.0
52270.0,STARLINK-3804,PAYLOAD,2023-08-23 11:17:26,15.08846321,0.0001293,53.2177,320.5789,95.9929,264.1211,0.00016874,2.399e-05,0.0,0 STARLINK-3804,1 52270U 22041K   23235.47044175  .00002399  00000-0  16874-3 0  9994,2 52270  53.2177 320.5789 0001293  95.9929 264.1211 15.08846321 75293,6917.861,95.437,540.621,538.832,0.0
52270.0,STARLINK-3804,PAYLOAD,2023-08-24 11:08:13,15.08833496,0.0001279,53.2177,316.1184,93.0508,267.0631,-4.0104e-05,-9.26e-06,0.0,0 STARLINK-3804,1 52270U 22041K   23236.46404823 -.00000926  00000-0 -40104-4 0  9994,2 52270  53.2177 316.1184 0001279  93.0508 267.0631 15.08833496 74239,6917.9,95.438,540.65,538.88,0.0
52270.0,STARLINK-3804,PAYLOAD,2023-08-25 10:59:00,15.08844085,0.0001357,53.2188,311.6583,95.4534,264.6613,6.7092e-05,7.8e-06,0.0,0 STARLINK-3804,1 52270U 22041K   23237.45764639  .00000780  00000-0  67092-4 0  9999,2 52270  53.2188 311.6583 0001357  95.4534 264.6613 15.08844085 75595,6917.868,95.437,540.672,538.794,0.0
52270.0,STARLINK-3804,PAYLOAD,2023-08-25 12:34:23,15.08846279,0.0001173,53.2175,311.3605,86.7725,273.3402,8.2784e-05,1.03e-05,0.0,0 STARLINK-3804,1 52270U 22041K   23237.52388449  .00001030  00000-0  82784-4 0  9992,2 52270  53.2175 311.3605 0001173  86.7725 273.3402 15.08846279 74391,6917.861,95.437,540.538,538.915,0.0
